[
    { "name": "Egypt", "dial_code": "+20", "code": "EG", "flag": "ğŸ‡ªğŸ‡¬" },
    { "name": "Saudi Arabia", "dial_code": "+966", "code": "SA", "flag": "ğŸ‡¸ğŸ‡¦" },
    { "name": "United Arab Emirates", "dial_code": "+971", "code": "AE", "flag": "ğŸ‡¦ğŸ‡ª" },
    { "name": "Kuwait", "dial_code": "+965", "code": "KW", "flag": "ğŸ‡°ğŸ‡¼" },
    { "name": "Qatar", "dial_code": "+974", "code": "QA", "flag": "ğŸ‡¶ğŸ‡¦" },
    { "name": "Bahrain", "dial_code": "+973", "code": "BH", "flag": "ğŸ‡§ğŸ‡­" },
    { "name": "Oman", "dial_code": "+968", "code": "OM", "flag": "ğŸ‡´ğŸ‡²" },
    { "name": "Jordan", "dial_code": "+962", "code": "JO", "flag": "ğŸ‡¯ğŸ‡´" },
    { "name": "Lebanon", "dial_code": "+961", "code": "LB", "flag": "ğŸ‡±ğŸ‡§" },
    { "name": "Syria", "dial_code": "+963", "code": "SY", "flag": "ğŸ‡¸ğŸ‡¾" },
    { "name": "Iraq", "dial_code": "+964", "code": "IQ", "flag": "ğŸ‡®ğŸ‡¶" },
    { "name": "Sudan", "dial_code": "+249", "code": "SD", "flag": "ğŸ‡¸ğŸ‡©" },
    { "name": "Libya", "dial_code": "+218", "code": "LY", "flag": "ğŸ‡±ğŸ‡¾" },
    { "name": "Algeria", "dial_code": "+213", "code": "DZ", "flag": "ğŸ‡©ğŸ‡¿" },
    { "name": "Morocco", "dial_code": "+212", "code": "MA", "flag": "ğŸ‡²ğŸ‡¦" },
    { "name": "Tunisia", "dial_code": "+216", "code": "TN", "flag": "ğŸ‡¹ğŸ‡³" },
    { "name": "Palestine", "dial_code": "+970", "code": "PS", "flag": "ğŸ‡µğŸ‡¸" },
    { "name": "Yemen", "dial_code": "+967", "code": "YE", "flag": "ğŸ‡¾ğŸ‡ª" },
    { "name": "Mauritania", "dial_code": "+222", "code": "MR", "flag": "ğŸ‡²ğŸ‡·" },
    { "name": "United States", "dial_code": "+1", "code": "US", "flag": "ğŸ‡ºğŸ‡¸" },
    { "name": "United Kingdom", "dial_code": "+44", "code": "GB", "flag": "ğŸ‡¬ğŸ‡§" },
    { "name": "France", "dial_code": "+33", "code": "FR", "flag": "ğŸ‡«ğŸ‡·" },
    { "name": "Germany", "dial_code": "+49", "code": "DE", "flag": "ğŸ‡©ğŸ‡ª" },
    { "name": "India", "dial_code": "+91", "code": "IN", "flag": "ğŸ‡®ğŸ‡³" },
    { "name": "China", "dial_code": "+86", "code": "CN", "flag": "ğŸ‡¨ğŸ‡³" }
  ]
  